[{"CCSDS_OMM_VERS":"2.0","COMMENT":"GENERATED VIA SPACE-TRACK.ORG API","CREATION_DATE":"2004-08-15T23:35:50","ORIGINATOR":"18 SPCS","OBJECT_NAME":"COSMOS 176 DEB","OBJECT_ID":"1967-086J","CENTER_NAME":"EARTH","REF_FRAME":"TEME","TIME_SYSTEM":"UTC","MEAN_ELEMENT_THEORY":"SGP4","EPOCH":"1967-09-24T12:27:26.396063","MEAN_MOTION":"14.86662207","ECCENTRICITY":"0.06554360","INCLINATION":"82.2361","RA_OF_ASC_NODE":"261.2814","ARG_OF_PERICENTER":"39.6294","MEAN_ANOMALY":"325.0860","EPHEMERIS_TYPE":"0","CLASSIFICATION_TYPE":"U","NORAD_CAT_ID":"2961","ELEMENT_SET_NO":"999","REV_AT_EPOCH":"170","BSTAR":"0.00000000000000","MEAN_MOTION_DOT":"0.03256282","MEAN_MOTION_DDOT":"0.0000000000000","SEMIMAJOR_AXIS":"6986.514","PERIOD":"96.861","APOAPSIS":"1066.301","PERIAPSIS":"150.458","OBJECT_TYPE":"DEBRIS","RCS_SIZE":null,"COUNTRY_CODE":null,"LAUNCH_DATE":null,"SITE":null,"DECAY_DATE":"1967-10-06","FILE":"33915","GP_ID":"8757633","TLE_LINE0":"0 COSMOS 176 DEB","TLE_LINE1":"1 02961U 67086  J 67267.51905551  .03256282 +00000-0 +00000-0 0  9992","TLE_LINE2":"2 02961 082.2361 261.2814 0655436 039.6294 325.0860 14.86662207001702"},{"CCSDS_OMM_VERS":"2.0","COMMENT":"GENERATED VIA SPACE-TRACK.ORG API","CREATION_DATE":"2004-08-15T23:35:50","ORIGINATOR":"18 SPCS","OBJECT_NAME":"OPS 3062 DEB","OBJECT_ID":"1964-072B","CENTER_NAME":"EARTH","REF_FRAME":"TEME","TIME_SYSTEM":"UTC","MEAN_ELEMENT_THEORY":"SGP4","EPOCH":"1967-09-25T01:21:44.697312","MEAN_MOTION":"16.02129457","ECCENTRICITY":"0.00186970","INCLINATION":"81.9371","RA_OF_ASC_NODE":"96.3617","ARG_OF_PERICENTER":"57.4878","MEAN_ANOMALY":"302.8080","EPHEMERIS_TYPE":"0","CLASSIFICATION_TYPE":"U","NORAD_CAT_ID":"925","ELEMENT_SET_NO":"999","REV_AT_EPOCH":"16107","BSTAR":"0.00000000000000","MEAN_MOTION_DOT":"0.01266260","MEAN_MOTION_DDOT":"0.0000000000000","SEMIMAJOR_AXIS":"6646.663","PERIOD":"89.880","APOAPSIS":"280.956","PERIAPSIS":"256.101","OBJECT_TYPE":"DEBRIS","RCS_SIZE":null,"COUNTRY_CODE":null,"LAUNCH_DATE":null,"SITE":null,"DECAY_DATE":"1967-10-02","FILE":"33915","GP_ID":"8731309","TLE_LINE0":"0 OPS 3062 DEB","TLE_LINE1":"1 00925U 64072  B 67268.05676733  .01266260 +00000-0 +00000-0 0  9994","TLE_LINE2":"2 00925 081.9371 096.3617 0018697 057.4878 302.8080 16.02129457161072"},{"CCSDS_OMM_VERS":"2.0","COMMENT":"GENERATED VIA SPACE-TRACK.ORG API","CREATION_DATE":"2004-08-15T23:35:50","ORIGINATOR":"18 SPCS","OBJECT_NAME":"COSMOS 176 DEB","OBJECT_ID":"1967-086H","CENTER_NAME":"EARTH","REF_FRAME":"TEME","TIME_SYSTEM":"UTC","MEAN_ELEMENT_THEORY":"SGP4","EPOCH":"1967-09-25T11:41:48.715296","MEAN_MOTION":"15.28003357","ECCENTRICITY":"0.04378490","INCLINATION":"82.0946","RA_OF_ASC_NODE":"258.6335","ARG_OF_PERICENTER":"38.7329","MEAN_ANOMALY":"324.4336","EPHEMERIS_TYPE":"0","CLASSIFICATION_TYPE":"U","NORAD_CAT_ID":"2960","ELEMENT_SET_NO":"999","REV_AT_EPOCH":"189","BSTAR":"0.00000000000000","MEAN_MOTION_DOT":"0.03212382","MEAN_MOTION_DDOT":"0.0000000000000","SEMIMAJOR_AXIS":"6859.923","PERIOD":"94.240","APOAPSIS":"782.149","PERIAPSIS":"181.427","OBJECT_TYPE":"DEBRIS","RCS_SIZE":null,"COUNTRY_CODE":null,"LAUNCH_DATE":null,"SITE":null,"DECAY_DATE":"1967-10-03","FILE":"33915","GP_ID":"8757629","TLE_LINE0":"0 COSMOS 176 DEB","TLE_LINE1":"1 02960U 67086  H 67268.48736939  .03212382 +00000-0 +00000-0 0  9993","TLE_LINE2":"2 02960 082.0946 258.6335 0437849 038.7329 324.4336 15.28003357001894"},{"CCSDS_OMM_VERS":"2.0","COMMENT":"GENERATED VIA SPACE-TRACK.ORG API","CREATION_DATE":"2004-08-15T23:35:50","ORIGINATOR":"18 SPCS","OBJECT_NAME":"SL-8 DEB","OBJECT_ID":"1965-020DW","CENTER_NAME":"EARTH","REF_FRAME":"TEME","TIME_SYSTEM":"UTC","MEAN_ELEMENT_THEORY":"SGP4","EPOCH":"1967-09-29T11:46:23.012831","MEAN_MOTION":"15.27225137","ECCENTRICITY":"0.02710450","INCLINATION":"55.8496","RA_OF_ASC_NODE":"279.4940","ARG_OF_PERICENTER":"1.1433","MEAN_ANOMALY":"359.0068","EPHEMERIS_TYPE":"0","CLASSIFICATION_TYPE":"U","NORAD_CAT_ID":"1596","ELEMENT_SET_NO":"999","REV_AT_EPOCH":"12855","BSTAR":"0.00000000000000","MEAN_MOTION_DOT":"0.00459473","MEAN_MOTION_DDOT":"0.0000000000000","SEMIMAJOR_AXIS":"6862.253","PERIOD":"94.288","APOAPSIS":"670.116","PERIAPSIS":"298.120","OBJECT_TYPE":"DEBRIS","RCS_SIZE":null,"COUNTRY_CODE":null,"LAUNCH_DATE":null,"SITE":null,"DECAY_DATE":"1967-10-29","FILE":"33915","GP_ID":"8739161","TLE_LINE0":"0 SL-8 DEB","TLE_LINE1":"1 01596U 65020 DW 67272.49054413  .00459473 +00000-0 +00000-0 0  9990","TLE_LINE2":"2 01596 055.8496 279.4940 0271045 001.1433 359.0068 15.27225137128553"},{"CCSDS_OMM_VERS":"2.0","COMMENT":"GENERATED VIA SPACE-TRACK.ORG API","CREATION_DATE":"2004-08-15T23:35:50","ORIGINATOR":"18 SPCS","OBJECT_NAME":"SL-7 DEB","OBJECT_ID":"1967-086C","CENTER_NAME":"EARTH","REF_FRAME":"TEME","TIME_SYSTEM":"UTC","MEAN_ELEMENT_THEORY":"SGP4","EPOCH":"1967-10-02T18:39:52.452287","MEAN_MOTION":"15.74556644","ECCENTRICITY":"0.03106340","INCLINATION":"82.1415","RA_OF_ASC_NODE":"252.5984","ARG_OF_PERICENTER":"11.9543","MEAN_ANOMALY":"348.8755","EPHEMERIS_TYPE":"0","CLASSIFICATION_TYPE":"U","NORAD_CAT_ID":"2944","ELEMENT_SET_NO":"999","REV_AT_EPOCH":"294","BSTAR":"0.00000000000000","MEAN_MOTION_DOT":"0.09717477","MEAN_MOTION_DDOT":"0.0000000000000","SEMIMAJOR_AXIS":"6724.034","PERIOD":"91.454","APOAPSIS":"554.770","PERIAPSIS":"137.028","OBJECT_TYPE":"DEBRIS","RCS_SIZE":null,"COUNTRY_CODE":null,"LAUNCH_DATE":null,"SITE":null,"DECAY_DATE":"1967-10-04","FILE":"33915","GP_ID":"8757357","TLE_LINE0":"0 SL-7 DEB","TLE_LINE1":"1 02944U 67086  C 67275.77769042  .09717477 +00000-0 +00000-0 0  9997","TLE_LINE2":"2 02944 082.1415 252.5984 0310634 011.9543 348.8755 15.74556644002949"},{"CCSDS_OMM_VERS":"2.0","COMMENT":"GENERATED VIA SPACE-TRACK.ORG API","CREATION_DATE":"2004-08-15T23:35:50","ORIGINATOR":"18 SPCS","OBJECT_NAME":"TITAN 3C TRANSTAGE DEB","OBJECT_ID":"1965-082GK","CENTER_NAME":"EARTH","REF_FRAME":"TEME","TIME_SYSTEM":"UTC","MEAN_ELEMENT_THEORY":"SGP4","EPOCH":"1967-10-08T03:36:53.890272","MEAN_MOTION":"15.73952251","ECCENTRICITY":"0.00139030","INCLINATION":"31.9652","RA_OF_ASC_NODE":"202.3198","ARG_OF_PERICENTER":"271.2220","MEAN_ANOMALY":"88.6797","EPHEMERIS_TYPE":"0","CLASSIFICATION_TYPE":"U","NORAD_CAT_ID":"1925","ELEMENT_SET_NO":"999","REV_AT_EPOCH":"10870","BSTAR":"0.00000000000000","MEAN_MOTION_DOT":"0.00921222","MEAN_MOTION_DDOT":"0.0000000000000","SEMIMAJOR_AXIS":"6725.755","PERIOD":"91.489","APOAPSIS":"356.971","PERIAPSIS":"338.269","OBJECT_TYPE":"DEBRIS","RCS_SIZE":null,"COUNTRY_CODE":null,"LAUNCH_DATE":null,"SITE":null,"DECAY_DATE":"1967-10-15","FILE":"33915","GP_ID":"8745654","TLE_LINE0":"0 TITAN 3C TRANSTAGE DEB","TLE_LINE1":"1 01925U 65082 GK 67281.15062373  .00921222 +00000-0 +00000-0 0  9997","TLE_LINE2":"2 01925 031.9652 202.3198 0013903 271.2220 088.6797 15.73952251108703"},{"CCSDS_OMM_VERS":"2.0","COMMENT":"GENERATED VIA SPACE-TRACK.ORG API","CREATION_DATE":"2004-08-15T23:35:50","ORIGINATOR":"18 SPCS","OBJECT_NAME":"SL-8 DEB","OBJECT_ID":"1965-020EE","CENTER_NAME":"EARTH","REF_FRAME":"TEME","TIME_SYSTEM":"UTC","MEAN_ELEMENT_THEORY":"SGP4","EPOCH":"1967-10-09T16:14:30.535584","MEAN_MOTION":"15.45113761","ECCENTRICITY":"0.00993820","INCLINATION":"56.2169","RA_OF_ASC_NODE":"16.8308","ARG_OF_PERICENTER":"248.8756","MEAN_ANOMALY":"110.1544","EPHEMERIS_TYPE":"0","CLASSIFICATION_TYPE":"U","NORAD_CAT_ID":"1635","ELEMENT_SET_NO":"999","REV_AT_EPOCH":"10779","BSTAR":"0.00000000000000","MEAN_MOTION_DOT":"0.01505437","MEAN_MOTION_DDOT":"0.0000000000000","SEMIMAJOR_AXIS":"6809.185","PERIOD":"93.197","APOAPSIS":"498.721","PERIAPSIS":"363.379","OBJECT_TYPE":"DEBRIS","RCS_SIZE":null,"COUNTRY_CODE":null,"LAUNCH_DATE":null,"SITE":null,"DECAY_DATE":"1967-10-20","FILE":"33915","GP_ID":"8739797","TLE_LINE0":"0 SL-8 DEB","TLE_LINE1":"1 01635U 65020 EE 67282.67674231  .01505437 +00000-0 +00000-0 0  9994","TLE_LINE2":"2 01635 056.2169 016.8308 0099382 248.8756 110.1544 15.45113761107797"},{"CCSDS_OMM_VERS":"2.0","COMMENT":"GENERATED VIA SPACE-TRACK.ORG API","CREATION_DATE":"2004-08-15T23:35:50","ORIGINATOR":"18 SPCS","OBJECT_NAME":"OPS 1879 DEB","OBJECT_ID":"1967-071C","CENTER_NAME":"EARTH","REF_FRAME":"TEME","TIME_SYSTEM":"UTC","MEAN_ELEMENT_THEORY":"SGP4","EPOCH":"1967-10-13T05:49:56.138304","MEAN_MOTION":"15.92792484","ECCENTRICITY":"0.00000000","INCLINATION":"75.0677","RA_OF_ASC_NODE":"266.6170","ARG_OF_PERICENTER":"0.0000","MEAN_ANOMALY":"0.1124","EPHEMERIS_TYPE":"0","CLASSIFICATION_TYPE":"U","NORAD_CAT_ID":"2892","ELEMENT_SET_NO":"999","REV_AT_EPOCH":"1235","BSTAR":"0.00000000000000","MEAN_MOTION_DOT":"0.03213752","MEAN_MOTION_DDOT":"0.0000000000000","SEMIMAJOR_AXIS":"6672.613","PERIOD":"90.407","APOAPSIS":"294.478","PERIAPSIS":"294.478","OBJECT_TYPE":"DEBRIS","RCS_SIZE":null,"COUNTRY_CODE":null,"LAUNCH_DATE":null,"SITE":null,"DECAY_DATE":"1967-10-16","FILE":"33915","GP_ID":"8756770","TLE_LINE0":"0 OPS 1879 DEB","TLE_LINE1":"1 02892U 67071  C 67286.24301086  .03213752 +00000-0 +00000-0 0  9998","TLE_LINE2":"2 02892 075.0677 266.6170 0000000 000.0000 000.1124 15.92792484012353"}]